[
  {
    "OBJECT_NAME": "STARLINK-30109",
    "OBJECT_ID": "23056N",
    "EPOCH": "2025-11-10T21:48:26.649792",
    "MEAN_MOTION": 15.02537344,
    "ECCENTRICITY": 0.0001168,
    "INCLINATION": 43.003,
    "RA_OF_ASC_NODE": 135.8428,
    "ARG_OF_PERICENTER": 264.2486,
    "MEAN_ANOMALY": 95.8223,
    "EPHEMERIS_TYPE": 0,
    "CLASSIFICATION_TYPE": "U",
    "NORAD_CAT_ID": 56298,
    "ELEMENT_SET_NO": 999,
    "REV_AT_EPOCH": 14221,
    "BSTAR": 1.5602e-05,
    "MEAN_MOTION_DOT": 7e-08,
    "MEAN_MOTION_DDOT": 0.0,
    "TLE_LINE1": "1 56298U 23056N   25314.90864178  .00000007  00000+0  15602-4 0  9998",
    "TLE_LINE2": "2 56298  43.0030 135.8428 0001168 264.2486  95.8223 15.02537344142214",
    "COMMENT": "Grouped by shell and plane from TLE"
  },
  {
    "OBJECT_NAME": "STARLINK-30104",
    "OBJECT_ID": "23056Q",
    "EPOCH": "2025-11-10T22:17:03.493824",
    "MEAN_MOTION": 15.0255056,
    "ECCENTRICITY": 0.0001191,
    "INCLINATION": 43.0021,
    "RA_OF_ASC_NODE": 135.214,
    "ARG_OF_PERICENTER": 261.9378,
    "MEAN_ANOMALY": 98.1329,
    "EPHEMERIS_TYPE": 0,
    "CLASSIFICATION_TYPE": "U",
    "NORAD_CAT_ID": 56300,
    "ELEMENT_SET_NO": 999,
    "REV_AT_EPOCH": 14222,
    "BSTAR": 3.1667e-05,
    "MEAN_MOTION_DOT": 2.24e-06,
    "MEAN_MOTION_DDOT": 0.0,
    "TLE_LINE1": "1 56300U 23056Q   25314.92851266  .00000224  00000+0  31667-4 0  9998",
    "TLE_LINE2": "2 56300  43.0021 135.2140 0001191 261.9378  98.1329 15.02550560142222",
    "COMMENT": "Grouped by shell and plane from TLE"
  },
  {
    "OBJECT_NAME": "STARLINK-30101",
    "OBJECT_ID": "23056R",
    "EPOCH": "2025-11-11T05:23:04.213248",
    "MEAN_MOTION": 15.02570559,
    "ECCENTRICITY": 0.0001154,
    "INCLINATION": 43.0029,
    "RA_OF_ASC_NODE": 133.9752,
    "ARG_OF_PERICENTER": 251.0028,
    "MEAN_ANOMALY": 109.0689,
    "EPHEMERIS_TYPE": 0,
    "CLASSIFICATION_TYPE": "U",
    "NORAD_CAT_ID": 56301,
    "ELEMENT_SET_NO": 999,
    "REV_AT_EPOCH": 14226,
    "BSTAR": 0.00033104,
    "MEAN_MOTION_DOT": 4.275e-05,
    "MEAN_MOTION_DDOT": 0.0,
    "TLE_LINE1": "1 56301U 23056R   25315.22435432  .00004275  00000+0  33104-3 0  9993",
    "TLE_LINE2": "2 56301  43.0029 133.9752 0001154 251.0028 109.0689 15.02570559142261",
    "COMMENT": "Grouped by shell and plane from TLE"
  },
  {
    "OBJECT_NAME": "STARLINK-30111",
    "OBJECT_ID": "23056S",
    "EPOCH": "2025-11-11T05:13:31.270656",
    "MEAN_MOTION": 15.02537063,
    "ECCENTRICITY": 9.38e-05,
    "INCLINATION": 43.0011,
    "RA_OF_ASC_NODE": 133.86,
    "ARG_OF_PERICENTER": 268.0389,
    "MEAN_ANOMALY": 92.0346,
    "EPHEMERIS_TYPE": 0,
    "CLASSIFICATION_TYPE": "U",
    "NORAD_CAT_ID": 56302,
    "ELEMENT_SET_NO": 999,
    "REV_AT_EPOCH": 14226,
    "BSTAR": 4.6718e-05,
    "MEAN_MOTION_DOT": 4.28e-06,
    "MEAN_MOTION_DDOT": 0.0,
    "TLE_LINE1": "1 56302U 23056S   25315.21772304  .00000428  00000+0  46718-4 0  9997",
    "TLE_LINE2": "2 56302  43.0011 133.8600 0000938 268.0389  92.0346 15.02537063142265",
    "COMMENT": "Grouped by shell and plane from TLE"
  },
  {
    "OBJECT_NAME": "STARLINK-30099",
    "OBJECT_ID": "23056U",
    "EPOCH": "2025-11-11T05:08:43.389312",
    "MEAN_MOTION": 15.02536848,
    "ECCENTRICITY": 0.0001089,
    "INCLINATION": 43.0033,
    "RA_OF_ASC_NODE": 133.8239,
    "ARG_OF_PERICENTER": 265.2803,
    "MEAN_ANOMALY": 94.7915,
    "EPHEMERIS_TYPE": 0,
    "CLASSIFICATION_TYPE": "U",
    "NORAD_CAT_ID": 56304,
    "ELEMENT_SET_NO": 999,
    "REV_AT_EPOCH": 14226,
    "BSTAR": 0.00011078,
    "MEAN_MOTION_DOT": 1.293e-05,
    "MEAN_MOTION_DDOT": 0.0,
    "TLE_LINE1": "1 56304U 23056U   25315.21439108  .00001293  00000+0  11078-3 0  9992",
    "TLE_LINE2": "2 56304  43.0033 133.8239 0001089 265.2803  94.7915 15.02536848142268",
    "COMMENT": "Grouped by shell and plane from TLE"
  },
  {
    "OBJECT_NAME": "STARLINK-30094",
    "OBJECT_ID": "23056V",
    "EPOCH": "2025-11-11T05:03:55.557216",
    "MEAN_MOTION": 15.02537719,
    "ECCENTRICITY": 0.0001093,
    "INCLINATION": 43.0021,
    "RA_OF_ASC_NODE": 133.7884,
    "ARG_OF_PERICENTER": 264.4604,
    "MEAN_ANOMALY": 95.6114,
    "EPHEMERIS_TYPE": 0,
    "CLASSIFICATION_TYPE": "U",
    "NORAD_CAT_ID": 56305,
    "ELEMENT_SET_NO": 999,
    "REV_AT_EPOCH": 14226,
    "BSTAR": 0.00011159,
    "MEAN_MOTION_DOT": 1.304e-05,
    "MEAN_MOTION_DDOT": 0.0,
    "TLE_LINE1": "1 56305U 23056V   25315.21105969  .00001304  00000+0  11159-3 0  9991",
    "TLE_LINE2": "2 56305  43.0021 133.7884 0001093 264.4604  95.6114 15.02537719142265",
    "COMMENT": "Grouped by shell and plane from TLE"
  },
  {
    "OBJECT_NAME": "STARLINK-30112",
    "OBJECT_ID": "23056W",
    "EPOCH": "2025-11-11T05:18:18.672480",
    "MEAN_MOTION": 15.02541484,
    "ECCENTRICITY": 0.0001335,
    "INCLINATION": 43.0012,
    "RA_OF_ASC_NODE": 133.8853,
    "ARG_OF_PERICENTER": 276.4448,
    "MEAN_ANOMALY": 83.6242,
    "EPHEMERIS_TYPE": 0,
    "CLASSIFICATION_TYPE": "U",
    "NORAD_CAT_ID": 56306,
    "ELEMENT_SET_NO": 999,
    "REV_AT_EPOCH": 14226,
    "BSTAR": 3.3225e-05,
    "MEAN_MOTION_DOT": 2.45e-06,
    "MEAN_MOTION_DDOT": 0.0,
    "TLE_LINE1": "1 56306U 23056W   25315.22104945  .00000245  00000+0  33225-4 0  9998",
    "TLE_LINE2": "2 56306  43.0012 133.8853 0001335 276.4448  83.6242 15.02541484142264",
    "COMMENT": "Grouped by shell and plane from TLE"
  },
  {
    "OBJECT_NAME": "STARLINK-5775",
    "OBJECT_ID": "23065A",
    "EPOCH": "2025-11-10T18:46:39.924192",
    "MEAN_MOTION": 15.02482062,
    "ECCENTRICITY": 0.0001937,
    "INCLINATION": 43.0016,
    "RA_OF_ASC_NODE": 136.8268,
    "ARG_OF_PERICENTER": 247.7556,
    "MEAN_ANOMALY": 112.3081,
    "EPHEMERIS_TYPE": 0,
    "CLASSIFICATION_TYPE": "U",
    "NORAD_CAT_ID": 56503,
    "ELEMENT_SET_NO": 999,
    "REV_AT_EPOCH": 13873,
    "BSTAR": 0.0011836000000000001,
    "MEAN_MOTION_DOT": 0.00015799,
    "MEAN_MOTION_DDOT": 0.0,
    "TLE_LINE1": "1 56503U 23065A   25314.78240653  .00015799  00000+0  11836-2 0  9996",
    "TLE_LINE2": "2 56503  43.0016 136.8268 0001937 247.7556 112.3081 15.02482062138733",
    "COMMENT": "Grouped by shell and plane from TLE"
  },
  {
    "OBJECT_NAME": "STARLINK-5716",
    "OBJECT_ID": "23065B",
    "EPOCH": "2025-11-10T18:41:49.401600",
    "MEAN_MOTION": 15.02537499,
    "ECCENTRICITY": 0.0001081,
    "INCLINATION": 43.0046,
    "RA_OF_ASC_NODE": 136.7999,
    "ARG_OF_PERICENTER": 268.9281,
    "MEAN_ANOMALY": 91.1437,
    "EPHEMERIS_TYPE": 0,
    "CLASSIFICATION_TYPE": "U",
    "NORAD_CAT_ID": 56504,
    "ELEMENT_SET_NO": 999,
    "REV_AT_EPOCH": 13873,
    "BSTAR": 2.8503e-05,
    "MEAN_MOTION_DOT": 1.81e-06,
    "MEAN_MOTION_DDOT": 0.0,
    "TLE_LINE1": "1 56504U 23065B   25314.77904400  .00000181  00000+0  28503-4 0  9993",
    "TLE_LINE2": "2 56504  43.0046 136.7999 0001081 268.9281  91.1437 15.02537499138731",
    "COMMENT": "Grouped by shell and plane from TLE"
  },
  {
    "OBJECT_NAME": "STARLINK-5763",
    "OBJECT_ID": "23065C",
    "EPOCH": "2025-11-10T18:38:40.721280",
    "MEAN_MOTION": 15.02498234,
    "ECCENTRICITY": 9.69e-05,
    "INCLINATION": 43.0023,
    "RA_OF_ASC_NODE": 136.7833,
    "ARG_OF_PERICENTER": 261.4173,
    "MEAN_ANOMALY": 98.656,
    "EPHEMERIS_TYPE": 0,
    "CLASSIFICATION_TYPE": "U",
    "NORAD_CAT_ID": 56505,
    "ELEMENT_SET_NO": 999,
    "REV_AT_EPOCH": 13873,
    "BSTAR": 0.0,
    "MEAN_MOTION_DOT": -2.763e-05,
    "MEAN_MOTION_DDOT": 0.0,
    "TLE_LINE1": "1 56505U 23065C   25314.77686020 -.00002763  00000+0 -18974-3 0  9999",
    "TLE_LINE2": "2 56505  43.0023 136.7833 0000969 261.4173  98.6560 15.02498234138738",
    "COMMENT": "Grouped by shell and plane from TLE"
  },
  {
    "OBJECT_NAME": "STARLINK-5335",
    "OBJECT_ID": "23065F",
    "EPOCH": "2025-11-10T21:45:17.189280",
    "MEAN_MOTION": 15.02544276,
    "ECCENTRICITY": 0.0001359,
    "INCLINATION": 43.0019,
    "RA_OF_ASC_NODE": 136.0373,
    "ARG_OF_PERICENTER": 261.3046,
    "MEAN_ANOMALY": 98.7642,
    "EPHEMERIS_TYPE": 0,
    "CLASSIFICATION_TYPE": "U",
    "NORAD_CAT_ID": 56508,
    "ELEMENT_SET_NO": 999,
    "REV_AT_EPOCH": 13875,
    "BSTAR": 2.0116000000000002e-05,
    "MEAN_MOTION_DOT": 6.8e-07,
    "MEAN_MOTION_DDOT": 0.0,
    "TLE_LINE1": "1 56508U 23065F   25314.90644895  .00000068  00000+0  20116-4 0  9997",
    "TLE_LINE2": "2 56508  43.0019 136.0373 0001359 261.3046  98.7642 15.02544276138752",
    "COMMENT": "Grouped by shell and plane from TLE"
  },
  {
    "OBJECT_NAME": "STARLINK-5334",
    "OBJECT_ID": "23065G",
    "EPOCH": "2025-11-11T05:31:08.779008",
    "MEAN_MOTION": 15.02534611,
    "ECCENTRICITY": 0.0001314,
    "INCLINATION": 43.0026,
    "RA_OF_ASC_NODE": 134.1643,
    "ARG_OF_PERICENTER": 264.2388,
    "MEAN_ANOMALY": 95.8305,
    "EPHEMERIS_TYPE": 0,
    "CLASSIFICATION_TYPE": "U",
    "NORAD_CAT_ID": 56509,
    "ELEMENT_SET_NO": 999,
    "REV_AT_EPOCH": 13880,
    "BSTAR": 0.00015416,
    "MEAN_MOTION_DOT": 1.879e-05,
    "MEAN_MOTION_DDOT": 0.0,
    "TLE_LINE1": "1 56509U 23065G   25315.22996272  .00001879  00000+0  15416-3 0  9990",
    "TLE_LINE2": "2 56509  43.0026 134.1643 0001314 264.2388  95.8305 15.02534611138804",
    "COMMENT": "Grouped by shell and plane from TLE"
  },
  {
    "OBJECT_NAME": "STARLINK-5339",
    "OBJECT_ID": "23065H",
    "EPOCH": "2025-11-10T21:42:05.454720",
    "MEAN_MOTION": 15.02537014,
    "ECCENTRICITY": 0.0001138,
    "INCLINATION": 43.0032,
    "RA_OF_ASC_NODE": 136.02,
    "ARG_OF_PERICENTER": 263.2234,
    "MEAN_ANOMALY": 96.8479,
    "EPHEMERIS_TYPE": 0,
    "CLASSIFICATION_TYPE": "U",
    "NORAD_CAT_ID": 56510,
    "ELEMENT_SET_NO": 999,
    "REV_AT_EPOCH": 13875,
    "BSTAR": 3.4255e-05,
    "MEAN_MOTION_DOT": 2.59e-06,
    "MEAN_MOTION_DDOT": 0.0,
    "TLE_LINE1": "1 56510U 23065H   25314.90422980  .00000259  00000+0  34255-4 0  9990",
    "TLE_LINE2": "2 56510  43.0032 136.0200 0001138 263.2234  96.8479 15.02537014138753",
    "COMMENT": "Grouped by shell and plane from TLE"
  }
]